LUR-1                   
1 60506U 24149AQ  26068.79566301  .00009121  00000+0  32985-3 0  9998
2 60506  97.3790 148.4255 0002777 309.1571  50.9421 15.28658648 86785
STARLINK-34066          
1 63909U 25095V   26068.34532877  .00044320  00000+0  16072-2 0  9999
2 63909  43.0035 178.2952 0003444 288.9698  71.0780 15.27642769 47725
